CCSDS_OMM_VERS = 2.0
CREATION_DATE  = 
ORIGINATOR     = 

OBJECT_NAME    = ARIANE 40 R/B
OBJECT_ID      = 1991-050F
CENTER_NAME    = EARTH
REF_FRAME      = TEME
TIME_SYSTEM    = UTC
MEAN_ELEMENT_THEORY = SGP/SGP4

EPOCH          = 2025-12-21T17:34:52.123008
MEAN_MOTION    = 14.42820112
ECCENTRICITY   = .000225
INCLINATION    = 98.2153
RA_OF_ASC_NODE = 45.8382
ARG_OF_PERICENTER = 328.9059
MEAN_ANOMALY   = 31.1998

EPHEMERIS_TYPE = 0
CLASSIFICATION_TYPE = U
NORAD_CAT_ID   = 21610
ELEMENT_SET_NO = 999
REV_AT_EPOCH   = 80775
BSTAR          = .92591E-4
MEAN_MOTION_DOT = .267E-5
MEAN_MOTION_DDOT = 0

CCSDS_OMM_VERS = 2.0
CREATION_DATE  = 
ORIGINATOR     = 

OBJECT_NAME    = INTERCOSMOS 25
OBJECT_ID      = 1991-086A
CENTER_NAME    = EARTH
REF_FRAME      = TEME
TIME_SYSTEM    = UTC
MEAN_ELEMENT_THEORY = SGP/SGP4

EPOCH          = 2025-12-21T17:12:33.943392
MEAN_MOTION    = 12.11761032
ECCENTRICITY   = .1486366
INCLINATION    = 82.6072
RA_OF_ASC_NODE = 357.1450
ARG_OF_PERICENTER = 285.0406
MEAN_ANOMALY   = 59.1298

EPHEMERIS_TYPE = 0
CLASSIFICATION_TYPE = U
NORAD_CAT_ID   = 21819
ELEMENT_SET_NO = 999
REV_AT_EPOCH   = 48724
BSTAR          = .37889E-3
MEAN_MOTION_DOT = .1902E-4
MEAN_MOTION_DDOT = 0

CCSDS_OMM_VERS = 2.0
CREATION_DATE  = 
ORIGINATOR     = 

OBJECT_NAME    = SL-8 R/B
OBJECT_ID      = 1992-008B
CENTER_NAME    = EARTH
REF_FRAME      = TEME
TIME_SYSTEM    = UTC
MEAN_ELEMENT_THEORY = SGP/SGP4

EPOCH          = 2025-12-21T17:15:26.181792
MEAN_MOTION    = 13.75960913
ECCENTRICITY   = .0034613
INCLINATION    = 82.9269
RA_OF_ASC_NODE = 325.7670
ARG_OF_PERICENTER = 354.9122
MEAN_ANOMALY   = 178.7974

EPHEMERIS_TYPE = 0
CLASSIFICATION_TYPE = U
NORAD_CAT_ID   = 21876
ELEMENT_SET_NO = 999
REV_AT_EPOCH   = 69869
BSTAR          = .95641E-4
MEAN_MOTION_DOT = .108E-5
MEAN_MOTION_DDOT = 0

CCSDS_OMM_VERS = 2.0
CREATION_DATE  = 
ORIGINATOR     = 

OBJECT_NAME    = SL-8 R/B
OBJECT_ID      = 1992-020B
CENTER_NAME    = EARTH
REF_FRAME      = TEME
TIME_SYSTEM    = UTC
MEAN_ELEMENT_THEORY = SGP/SGP4

EPOCH          = 2025-12-21T17:12:15.700032
MEAN_MOTION    = 13.75529292
ECCENTRICITY   = .0029483
INCLINATION    = 82.9296
RA_OF_ASC_NODE = 211.6514
ARG_OF_PERICENTER = 153.2731
MEAN_ANOMALY   = 275.4546

EPHEMERIS_TYPE = 0
CLASSIFICATION_TYPE = U
NORAD_CAT_ID   = 21938
ELEMENT_SET_NO = 999
REV_AT_EPOCH   = 69041
BSTAR          = .11557E-3
MEAN_MOTION_DOT = .127E-5
MEAN_MOTION_DDOT = 0

CCSDS_OMM_VERS = 2.0
CREATION_DATE  = 
ORIGINATOR     = 

OBJECT_NAME    = USA 81
OBJECT_ID      = 1992-023A
CENTER_NAME    = EARTH
REF_FRAME      = TEME
TIME_SYSTEM    = UTC
MEAN_ELEMENT_THEORY = SGP/SGP4

EPOCH          = 2025-12-21T18:23:44.564064
MEAN_MOTION    = 14.32329954
ECCENTRICITY   = .0001122
INCLINATION    = 85.0079
RA_OF_ASC_NODE = 176.3699
ARG_OF_PERICENTER = 79.7034
MEAN_ANOMALY   = 280.4285

EPHEMERIS_TYPE = 0
CLASSIFICATION_TYPE = U
NORAD_CAT_ID   = 21949
ELEMENT_SET_NO = 999
REV_AT_EPOCH   = 8363
BSTAR          = .51813E-4
MEAN_MOTION_DOT = .16E-5
MEAN_MOTION_DDOT = 0

CCSDS_OMM_VERS = 2.0
CREATION_DATE  = 
ORIGINATOR     = 

OBJECT_NAME    = COSMOS 2219
OBJECT_ID      = 1992-076A
CENTER_NAME    = EARTH
REF_FRAME      = TEME
TIME_SYSTEM    = UTC
MEAN_ELEMENT_THEORY = SGP/SGP4

EPOCH          = 2025-12-21T18:42:07.967232
MEAN_MOTION    = 14.14065371
ECCENTRICITY   = .0019268
INCLINATION    = 71.0575
RA_OF_ASC_NODE = 180.9358
ARG_OF_PERICENTER = 314.5724
MEAN_ANOMALY   = 45.3825

EPHEMERIS_TYPE = 0
CLASSIFICATION_TYPE = U
NORAD_CAT_ID   = 22219
ELEMENT_SET_NO = 999
REV_AT_EPOCH   = 70736
BSTAR          = .15045E-3
MEAN_MOTION_DOT = .24E-5
MEAN_MOTION_DDOT = 0

CCSDS_OMM_VERS = 2.0
CREATION_DATE  = 
ORIGINATOR     = 

OBJECT_NAME    = SL-16 R/B
OBJECT_ID      = 1992-076B
CENTER_NAME    = EARTH
REF_FRAME      = TEME
TIME_SYSTEM    = UTC
MEAN_ELEMENT_THEORY = SGP/SGP4

EPOCH          = 2025-12-21T11:34:07.504320
MEAN_MOTION    = 14.16843984
ECCENTRICITY   = .00143492
INCLINATION    = 71.0007
RA_OF_ASC_NODE = 353.1159
ARG_OF_PERICENTER = 222.2615
MEAN_ANOMALY   = 251.7583

EPHEMERIS_TYPE = 0
CLASSIFICATION_TYPE = U
NORAD_CAT_ID   = 22220
ELEMENT_SET_NO = 999
REV_AT_EPOCH   = 71075
BSTAR          = .13696554E-3
MEAN_MOTION_DOT = .227E-5
MEAN_MOTION_DDOT = 0

CCSDS_OMM_VERS = 2.0
CREATION_DATE  = 
ORIGINATOR     = 

OBJECT_NAME    = COSMOS 2221
OBJECT_ID      = 1992-080A
CENTER_NAME    = EARTH
REF_FRAME      = TEME
TIME_SYSTEM    = UTC
MEAN_ELEMENT_THEORY = SGP/SGP4

EPOCH          = 2025-12-21T17:09:45.307008
MEAN_MOTION    = 14.95792032
ECCENTRICITY   = .0016286
INCLINATION    = 82.5038
RA_OF_ASC_NODE = 353.7340
ARG_OF_PERICENTER = 94.1534
MEAN_ANOMALY   = 266.1550

EPHEMERIS_TYPE = 0
CLASSIFICATION_TYPE = U
NORAD_CAT_ID   = 22236
ELEMENT_SET_NO = 999
REV_AT_EPOCH   = 76913
BSTAR          = .1392E-3
MEAN_MOTION_DOT = .1582E-4
MEAN_MOTION_DDOT = 0

CCSDS_OMM_VERS = 2.0
CREATION_DATE  = 
ORIGINATOR     = 

OBJECT_NAME    = SL-16 R/B
OBJECT_ID      = 1992-093B
CENTER_NAME    = EARTH
REF_FRAME      = TEME
TIME_SYSTEM    = UTC
MEAN_ELEMENT_THEORY = SGP/SGP4

EPOCH          = 2025-12-21T18:57:33.414048
MEAN_MOTION    = 14.15434904
ECCENTRICITY   = .00024
INCLINATION    = 71.0204
RA_OF_ASC_NODE = 167.7974
ARG_OF_PERICENTER = 41.4659
MEAN_ANOMALY   = 318.6645

EPHEMERIS_TYPE = 0
CLASSIFICATION_TYPE = U
NORAD_CAT_ID   = 22285
ELEMENT_SET_NO = 999
REV_AT_EPOCH   = 70213
BSTAR          = .52985E-4
MEAN_MOTION_DOT = .56E-6
MEAN_MOTION_DDOT = 0

CCSDS_OMM_VERS = 2.0
CREATION_DATE  = 
ORIGINATOR     = 

OBJECT_NAME    = COSMOS 2228
OBJECT_ID      = 1992-094A
CENTER_NAME    = EARTH
REF_FRAME      = TEME
TIME_SYSTEM    = UTC
MEAN_ELEMENT_THEORY = SGP/SGP4

EPOCH          = 2025-12-21T20:22:51.279168
MEAN_MOTION    = 14.96767641
ECCENTRICITY   = .0017206
INCLINATION    = 82.5183
RA_OF_ASC_NODE = 311.8179
ARG_OF_PERICENTER = 198.8094
MEAN_ANOMALY   = 161.2495

EPHEMERIS_TYPE = 0
CLASSIFICATION_TYPE = U
NORAD_CAT_ID   = 22286
ELEMENT_SET_NO = 999
REV_AT_EPOCH   = 76441
BSTAR          = .15466E-3
MEAN_MOTION_DOT = .1799E-4
MEAN_MOTION_DDOT = 0

